[Satellite]
VERSION=1.1
NAME=PRATHAM
NICKNAME=PRATHAM
TLE1=1 41783U 16059A   17186.21878838  .00000045  00000-0  18065-4 0  9995
TLE2=2 41783  98.1658 247.4055 0035004 103.9795 256.5303 14.62842178 41232
